[
    {
        "Altitude(m)": 607886.6891334538,
        "Argument of Periapsis(deg)": 0.0,
        "Eccentricity": 0.0,
        "Inclination(deg)": 60.0,
        "Latitude(deg)": 40.99843738350095,
        "Longitude(deg)": -15.027138752739463,
        "Mean Anomaly(deg)": 49.09089999999999,
        "RAAN(deg)": 55.00000000000001,
        "Satellite Name": "Test1 245",
        "Satellite Number": 245,
        "Semi-Major Axis(m)": 6980739.136638005,
        "Time(s)": 0
    },
    {
        "Altitude(m)": 607987.6036164949,
        "Argument of Periapsis(deg)": 0.00010418945913296404,
        "Eccentricity": 0.0,
        "Inclination(deg)": 60.0,
        "Latitude(deg)": 41.46352866650141,
        "Longitude(deg)": -14.522912878112603,
        "Mean Anomaly(deg)": 49.71100614546182,
        "RAAN(deg)": 54.999579950860266,
        "Satellite Name": "Test1 245",
        "Satellite Number": 245,
        "Semi-Major Axis(m)": 6980739.136638005,
        "Time(s)": 10
    }
]